NORAD_CAT_ID,OBJECT_NAME,OBJECT_TYPE,EPOCH,MEAN_MOTION,ECCENTRICITY,INCLINATION,RA_OF_ASC_NODE,ARG_OF_PERICENTER,MEAN_ANOMALY,BSTAR,MEAN_MOTION_DOT,MEAN_MOTION_DDOT,TLE_LINE0,TLE_LINE1,TLE_LINE2,SEMIMAJOR_AXIS,PERIOD,APOGEE,PERIGEE,DECAYED
53932.0,STARLINK-4772,PAYLOAD,2022-11-30 22:00:00,15.73279363,0.0003645,53.2149,281.6269,4.0094,168.8403,-0.0010627,-0.00147749,0.0,0 STARLINK-4772,1 53932U 22119AY  22334.91667824 -.00147749  00000-0 -10627-2 0  9996,2 53932  53.2149 281.6269 0003645   4.0094 168.8403 15.73279363  1307,6727.669,91.529,351.986,347.082,0.0
53932.0,STARLINK-4772,PAYLOAD,2022-12-01 14:00:01,15.73207825,0.0003725,53.2133,278.34,4.813,345.9763,0.0001743,0.00023924,0.0,0 STARLINK-4772,1 53932U 22119AY  22335.58334491  .00023924  00000-0  17430-3 0  9997,2 53932  53.2133 278.3400 0003725   4.8130 345.9763 15.73207825  1309,6727.873000000001,91.533,352.244,347.232,0.0
53932.0,STARLINK-4772,PAYLOAD,2022-12-01 20:00:01,15.73225919,0.0003651,53.2133,277.1019,6.3744,321.1842,0.00046582,0.00065354,0.0,0 STARLINK-4772,1 53932U 22119AY  22335.83335648  .00065354  00000-0  46582-3 0  9993,2 53932  53.2133 277.1019 0003651   6.3744 321.1842 15.73225919 11116,6727.821,91.532,352.14300000000014,347.23,0.0
53932.0,STARLINK-4772,PAYLOAD,2022-12-01 22:00:00,15.73267837,0.0003696,53.2133,276.6901,6.3417,73.3678,-0.0002097,-0.00030047,0.0,0 STARLINK-4772,1 53932U 22119AY  22335.91667824 -.00030047  00000-0 -20970-3 0  9992,2 53932  53.2133 276.6901 0003696   6.3417  73.3678 15.73267837  1304,6727.7019999999975,91.529,352.05300000000005,347.08,0.0
53932.0,STARLINK-4772,PAYLOAD,2022-12-02 06:00:00,15.73192961,0.0003933,53.2131,275.0422,2.5811,166.1251,-0.00013507,-0.0001954,0.0,0 STARLINK-4772,1 53932U 22119AY  22336.25001157 -.00019540  00000-0 -13507-3 0  9994,2 53932  53.2131 275.0422 0003933   2.5811 166.1251 15.73192961 11183,6727.915,91.534,352.426,347.134,0.0
53932.0,STARLINK-4772,PAYLOAD,2022-12-02 14:00:01,15.73194039,0.0003692,53.2127,273.3907,1.6308,256.0077,9.1996e-05,0.00012307,0.0,0 STARLINK-4772,1 53932U 22119AY  22336.58334491  .00012307  00000-0  91996-4 0  9991,2 53932  53.2127 273.3907 0003692   1.6308 256.0077 15.73194039 11239,6727.9119999999975,91.534,352.261,347.293,0.0
53932.0,STARLINK-4772,PAYLOAD,2022-12-02 22:00:00,15.73225137,0.0003602,53.2129,271.741,4.2099,342.3523,-0.00049171,-0.0006917,0.0,0 STARLINK-4772,1 53932U 22119AY  22336.91667824 -.00069170  00000-0 -49171-3 0  9996,2 53932  53.2129 271.7410 0003602   4.2099 342.3523 15.73225137  1305,6727.824000000001,91.532,352.112,347.265,0.0
53932.0,STARLINK-4772,PAYLOAD,2022-12-03 14:00:01,15.73196093,0.0003712,53.2133,268.4414,4.8011,159.6437,0.00020816,0.00028695,0.0,0 STARLINK-4772,1 53932U 22119AY  22337.58334491  .00028695  00000-0  20816-3 0  9991,2 53932  53.2133 268.4414 0003712   4.8011 159.6437 15.73196093  1300,6727.906,91.533,352.269,347.274,0.0
53932.0,STARLINK-4772,PAYLOAD,2022-12-03 22:00:00,15.73216092,0.0003738,53.2134,266.7919,9.1972,244.1863,-8.0491e-05,-0.00011917,0.0,0 STARLINK-4772,1 53932U 22119AY  22337.91667824 -.00011917  00000-0 -80491-4 0  9994,2 53932  53.2134 266.7919 0003738   9.1972 244.1863 15.73216092 11445,6727.849,91.532,352.22900000000016,347.199,0.0
53932.0,STARLINK-4772,PAYLOAD,2022-12-04 14:00:01,15.73185022,0.0003661,53.213,263.4923,8.6558,62.6231,2.6624e-05,3.113e-05,0.0,0 STARLINK-4772,1 53932U 22119AY  22338.58334491  .00003113  00000-0  26624-4 0  9994,2 53932  53.2130 263.4923 0003661   8.6558  62.6231 15.73185022  1303,6727.938,91.534,352.266,347.34,0.0
53932.0,STARLINK-4772,PAYLOAD,2022-12-04 22:00:00,15.73178317,0.0003637,53.2132,261.8431,11.7456,148.4563,0.00016564,0.00022672,0.0,0 STARLINK-4772,1 53932U 22119AY  22338.91667824  .00022672  00000-0  16564-3 0  9992,2 53932  53.2132 261.8431 0003637  11.7456 148.4563 15.73178317  1306,6727.956999999999,91.534,352.269,347.375,0.0
53932.0,STARLINK-4772,PAYLOAD,2022-12-05 06:00:00,15.73185925,0.0003835,53.2132,260.1951,10.2974,238.826,0.00015126,0.00020652,0.0,0 STARLINK-4772,1 53932U 22119AY  22339.25001157  .00020652  00000-0  15126-3 0  9990,2 53932  53.2132 260.1951 0003835  10.2974 238.8260 15.73185925 11654,6727.935,91.534,352.38,347.22,0.0
53932.0,STARLINK-4772,PAYLOAD,2022-12-05 14:00:01,15.7316642,0.0003597,53.2135,258.5434,10.6272,327.487,0.00062066,0.0008728999999999,0.0,0 STARLINK-4772,1 53932U 22119AY  22339.58335648  .00087290  00000-0  62066-3 0  9997,2 53932  53.2135 258.5434 0003597  10.6272 327.4870 15.73166420  1306,6727.991,91.535,352.276,347.436,0.0
53932.0,STARLINK-4772,PAYLOAD,2022-12-05 16:00:00,15.73170576,0.0003562,53.2134,258.1308,11.0519,79.2255,0.00074857,0.00105658,0.0,0 STARLINK-4772,1 53932U 22119AY  22339.66667824  .00105658  00000-0  74857-3 0  9990,2 53932  53.2134 258.1308 0003562  11.0519  79.2255 15.73170576  1308,6727.979,91.535,352.241,347.4480000000001,0.0
53932.0,STARLINK-4772,PAYLOAD,2022-12-06 03:48:55,15.73252497,0.0003167,53.2139,255.6938,17.4368,342.676,0.000256,0.00035546,0.0,0 STARLINK-4772,1 53932U 22119AY  22340.15898040  .00035546  00000-0  25600-3 0  9992,2 53932  53.2139 255.6938 0003167  17.4368 342.6760 15.73252497 11792,6727.746,91.53,351.741,347.48,0.0
53932.0,STARLINK-4772,PAYLOAD,2022-12-06 19:03:44,15.73230629,0.0003399,53.2151,252.5497,44.5753,315.5540000000001,0.00014001,0.00019102,0.0,0 STARLINK-4772,1 53932U 22119AY  22340.79425932  .00019102  00000-0  14001-3 0  9991,2 53932  53.2151 252.5497 0003399  44.5753 315.5540 15.73230629 11897,6727.808000000001,91.531,351.96,347.386,0.0
53932.0,STARLINK-4772,PAYLOAD,2022-12-07 02:41:07,15.73225946,0.0003133,53.2144,250.9791,3.6475,356.4568,0.00018223,0.00025062,0.0,0 STARLINK-4772,1 53932U 22119AY  22341.11189633  .00025062  00000-0  18223-3 0  9995,2 53932  53.2144 250.9791 0003133   3.6475 356.4568 15.73225946 11947,6727.821,91.532,351.7940000000001,347.57800000000015,0.0
53932.0,STARLINK-4772,PAYLOAD,2022-12-07 04:12:36,15.73214682,0.0003103,53.2134,250.6642,4.6995,355.4054,0.00022017,0.00030415,0.0,0 STARLINK-4772,1 53932U 22119AY  22341.17542713  .00030415  00000-0  22017-3 0  9997,2 53932  53.2134 250.6642 0003103   4.6995 355.4054 15.73214682 11958,6727.853,91.532,351.806,347.631,0.0
53932.0,STARLINK-4772,PAYLOAD,2022-12-07 17:55:57,15.73191457,0.0002238,53.2135,247.8309,13.6442,346.4639,0.00012,0.00016248,0.0,0 STARLINK-4772,1 53932U 22119AY  22341.74718843  .00016248  00000-0  12000-3 0  9998,2 53932  53.2135 247.8309 0002238  13.6442 346.4639 15.73191457 12046,6727.92,91.534,351.29,348.279,0.0
53932.0,STARLINK-4772,PAYLOAD,2022-12-08 00:01:52,15.73221583,0.0003871,53.2135,246.5803,10.3848,349.7251,0.0002778,0.00038593,0.0,0 STARLINK-4772,1 53932U 22119AY  22342.00129930  .00038593  00000-0  27780-3 0  9999,2 53932  53.2135 246.5803 0003871  10.3848 349.7251 15.73221583 12083,6727.834,91.532,352.30300000000005,347.094,0.0
53932.0,STARLINK-4772,PAYLOAD,2022-12-08 10:42:12,15.73253118,0.0003433,53.2138,244.3775,356.2709,3.8285,0.00017477,0.00024037,0.0,0 STARLINK-4772,1 53932U 22119AY  22342.44598002  .00024037  00000-0  17477-3 0  9997,2 53932  53.2138 244.3775 0003433 356.2709   3.8285 15.73253118 12581,6727.744000000002,91.53,351.918,347.2990000000001,0.0
53932.0,STARLINK-4772,PAYLOAD,2022-12-09 00:25:30,15.73198886,0.0005507,53.2137,241.5505,321.806,38.2569,-0.00011393,-0.00016599,0.0,0 STARLINK-4772,1 53932U 22119AY  22343.01771985 -.00016599  00000-0 -11393-3 0  9991,2 53932  53.2137 241.5505 0005507 321.8060  38.2569 15.73198886 12242,6727.898,91.533,353.468,346.05800000000005,0.0
53932.0,STARLINK-4772,PAYLOAD,2022-12-10 02:20:44,15.73083473,0.0002609,53.2136,236.2065,20.1294,339.9828,-0.00029617,-0.00041782,0.0,0 STARLINK-4772,1 53932U 22119AY  22344.09773484 -.00041782  00000-0 -29617-3 0  9996,2 53932  53.2136 236.2065 0002609  20.1294 339.9828 15.73083473 12414,6728.227,91.54,351.848,348.337,0.0
53932.0,STARLINK-4772,PAYLOAD,2022-12-11 02:44:25,15.73232247,5.58e-05,53.2131,231.18,342.8532,17.2469,0.00023476,0.000325,0.0,0 STARLINK-4772,1 53932U 22119AY  22345.11417849  .00032500  00000-0  23476-3 0  9993,2 53932  53.2131 231.1800 0000558 342.8532  17.2469 15.73232247 12579,6727.803000000001,91.531,350.0440000000001,349.293,0.0
53932.0,STARLINK-4772,PAYLOAD,2022-12-11 05:47:22,15.73204377,0.0001665,53.2133,230.5517,4.5271,355.5764,0.00013092,0.00017796,0.0,0 STARLINK-4772,1 53932U 22119AY  22345.24123709  .00017796  00000-0  13092-3 0  9999,2 53932  53.2133 230.5517 0001665   4.5271 355.5764 15.73204377 12592,6727.8830000000025,91.533,350.86800000000005,348.62800000000016,0.0
53932.0,STARLINK-4772,PAYLOAD,2022-12-11 14:56:15,15.73251674,0.0002559,53.2125,228.6552,14.2988,345.8105,0.00012658,0.0001721999999999,0.0,0 STARLINK-4772,1 53932U 22119AY  22345.62239584  .00017220  00000-0  12658-3 0  9999,2 53932  53.2125 228.6552 0002559  14.2988 345.8105 15.73251674 12656,6727.748000000001,91.53,351.334,347.891,0.0
53932.0,STARLINK-4772,PAYLOAD,2022-12-11 21:02:10,15.73242031,0.0001825,53.2128,227.4014,11.435,348.6712,-1.8831e-05,-3.268e-05,0.0,0 STARLINK-4772,1 53932U 22119AY  22345.87651035 -.00003268  00000-0 -18831-4 0  9994,2 53932  53.2128 227.4014 0001825  11.4350 348.6712 15.73242031 13121,6727.775,91.531,350.86800000000005,348.413,0.0
53932.0,STARLINK-4772,PAYLOAD,2022-12-11 22:33:31,15.73308794,0.0003483,53.2124,227.0877,13.6195,346.4919,-0.00031309,-0.00044553,0.0,0 STARLINK-4772,1 53932U 22119AY  22345.93994718 -.00044553  00000-0 -31309-3 0  9995,2 53932  53.2124 227.0877 0003483  13.6195 346.4919 15.73308794 12700,6727.585,91.527,351.793,347.107,0.0
53932.0,STARLINK-4772,PAYLOAD,2022-12-12 15:19:56,15.73224515,0.0003587,53.2127,223.6297,0.0853,0.0167,0.00011037,0.00014914,0.0,0 STARLINK-4772,1 53932U 22119AY  22346.63884990  .00014914  00000-0  11037-3 0  9995,2 53932  53.2127 223.6297 0003587   0.0853   0.0167 15.73224515 13243,6727.825,91.532,352.10400000000016,347.277,0.0
